{
    "links": {
        "self": "http://www.neowsapp.com/rest/v1/neo/3404528?api_key=iIulBulltgU6a56xZRHN4H3l9WmuAYTsLGpBGhQ2"
    },
    "id": "3404528",
    "neo_reference_id": "3404528",
    "name": "(2008 EN)",
    "designation": "2008 EN",
    "nasa_jpl_url": "http://ssd.jpl.nasa.gov/sbdb.cgi?sstr=3404528",
    "absolute_magnitude_h": 24.5,
    "estimated_diameter": {
        "kilometers": {
            "estimated_diameter_min": 0.0334622374,
            "estimated_diameter_max": 0.0748238376
        },
        "meters": {
            "estimated_diameter_min": 33.4622374455,
            "estimated_diameter_max": 74.8238376074
        },
        "miles": {
            "estimated_diameter_min": 0.0207924639,
            "estimated_diameter_max": 0.0464933628
        },
        "feet": {
            "estimated_diameter_min": 109.7842471007,
            "estimated_diameter_max": 245.4850393757
        }
    },
    "is_potentially_hazardous_asteroid": false,
    "close_approach_data": [
        {
            "close_approach_date": "2007-10-12",
            "close_approach_date_full": "2007-Oct-12 05:34",
            "epoch_date_close_approach": 1192167240000,
            "relative_velocity": {
                "kilometers_per_second": "11.3819064429",
                "kilometers_per_hour": "40974.863194571",
                "miles_per_hour": "25460.1865222044"
            },
            "miss_distance": {
                "astronomical": "0.4978787095",
                "lunar": "193.6748179955",
                "kilometers": "74481594.459548765",
                "miles": "46280716.731812357"
            },
            "orbiting_body": "Earth"
        },
        {
            "close_approach_date": "2008-02-19",
            "close_approach_date_full": "2008-Feb-19 09:47",
            "epoch_date_close_approach": 1203414420000,
            "relative_velocity": {
                "kilometers_per_second": "15.9407833468",
                "kilometers_per_hour": "57386.8200485009",
                "miles_per_hour": "35657.9382684699"
            },
            "miss_distance": {
                "astronomical": "0.0669499048",
                "lunar": "26.0435129672",
                "kilometers": "10015563.154782776",
                "miles": "6223382.3623072688"
            },
            "orbiting_body": "Earth"
        }
    ],
    "orbital_data": {
        "orbit_id": "6",
        "orbit_determination_date": "2017-04-06 09:04:11",
        "first_observation_date": "2008-03-01",
        "last_observation_date": "2008-03-03",
        "data_arc_in_days": 2,
        "observations_used": 16,
        "orbit_uncertainty": "9",
        "minimum_orbit_intersection": ".0667651",
        "jupiter_tisserand_invariant": "4.058",
        "epoch_osculation": "2454527.5",
        "eccentricity": ".4278655802373714",
        "semi_major_axis": "1.661014671548368",
        "inclination": "24.97662625123287",
        "ascending_node_longitude": "153.6923913015779",
        "orbital_period": "781.9133528079803",
        "perihelion_distance": ".9503236653235388",
        "perihelion_argument": "309.5108634113112",
        "aphelion_distance": "2.371705677773198",
        "perihelion_time": "2454477.203948022164",
        "mean_anomaly": "23.15675854235925",
        "mean_motion": ".4604090705283141",
        "equinox": "J2000",
        "orbit_class": {
            "orbit_class_type": "APO",
            "orbit_class_description": "Near-Earth asteroid orbits which cross the Earth’s orbit similar to that of 1862 Apollo",
            "orbit_class_range": "a (semi-major axis) > 1.0 AU; q (perihelion) < 1.017 AU"
        }
    },
    "is_sentry_object": false
}